start=new Date('2023-01-13T00:00:00.000Z').valueOf();
sats=[{"BSTAR":"-0.00031214000000","DECAY_DATE":null,"RA_OF_ASC_NODE":"42.1497","TLE_LINE1":"1 52626U 22052AE  23012.35915006 -.00005250  00000-0 -31214-3 0  9997","RCS_SIZE":"LARGE","EPHEMERIS_TYPE":"0","ELEMENT_SET_NO":"999","SITE":"AFETR","MEAN_MOTION_DOT":"-0.00005250","REF_FRAME":"TEME","MEAN_ANOMALY":"324.3674","APOAPSIS":"541.499","PERIOD":"95.439","MEAN_MOTION_DDOT":"0.0000000000000","TLE_LINE2":"2 52626  53.2154  42.1497 0002455  35.7482 324.3674 15.08821941 37025","OBJECT_NAME":"STARLINK-3990","ARG_OF_PERICENTER":"35.7482","COUNTRY_CODE":"US","CENTER_NAME":"EARTH","NORAD_CAT_ID":"52626","FILE":"3742227","OBJECT_TYPE":"PAYLOAD","PERIAPSIS":"538.102","SEMIMAJOR_AXIS":"6917.936","MEAN_MOTION":"15.08821941","GP_ID":"222889873","OBJECT_ID":"2022-052AE","EPOCH":"2023-01-12T08:37:10.565184","MEAN_ELEMENT_THEORY":"SGP4","TIME_SYSTEM":"UTC","ECCENTRICITY":"0.00024550","REV_AT_EPOCH":"3702","LAUNCH_DATE":"2022-05-14","INCLINATION":"53.2154","CLASSIFICATION_TYPE":"U"},{"CLASSIFICATION_TYPE":"U","LAUNCH_DATE":"2022-05-14","REV_AT_EPOCH":"3747","INCLINATION":"53.2176","ECCENTRICITY":"0.00030950","TIME_SYSTEM":"UTC","MEAN_ELEMENT_THEORY":"SGP4","EPOCH":"2023-01-12T19:13:04.101024","OBJECT_ID":"2022-052AF","GP_ID":"222841690","SEMIMAJOR_AXIS":"6917.892","MEAN_MOTION":"15.08836236","PERIAPSIS":"537.616","CENTER_NAME":"EARTH","OBJECT_TYPE":"PAYLOAD","NORAD_CAT_ID":"52627","FILE":"3741163","OBJECT_NAME":"STARLINK-3992","COUNTRY_CODE":"US","ARG_OF_PERICENTER":"24.0158","TLE_LINE2":"2 52627  53.2176  40.1580 0003095  24.0158 336.0978 15.08836236 37472","MEAN_ANOMALY":"336.0978","APOAPSIS":"541.898","PERIOD":"95.438","MEAN_MOTION_DDOT":"0.0000000000000","MEAN_MOTION_DOT":"-0.00000849","REF_FRAME":"TEME","ELEMENT_SET_NO":"999","SITE":"AFETR","EPHEMERIS_TYPE":"0","RCS_SIZE":"LARGE","TLE_LINE1":"1 52627U 22052AF  23012.80074191 -.00000849  00000-0 -35191-4 0  9997","RA_OF_ASC_NODE":"40.1580","BSTAR":"-0.00003519100000","DECAY_DATE":null},{"TLE_LINE2":"2 52628  53.2140  54.9481 0002397  31.3173 328.7961 15.08842226 36890","MEAN_MOTION_DDOT":"0.0000000000000","APOAPSIS":"541.397","MEAN_ANOMALY":"328.7961","PERIOD":"95.437","REF_FRAME":"TEME","MEAN_MOTION_DOT":"0.00001717","SITE":"AFETR","ELEMENT_SET_NO":"999","RCS_SIZE":"LARGE","EPHEMERIS_TYPE":"0","TLE_LINE1":"1 52628U 22052AG  23012.84905604  .00001717  00000-0  12598-3 0  9992","RA_OF_ASC_NODE":"54.9481","DECAY_DATE":null,"BSTAR":"0.00012598000000","INCLINATION":"53.2140","LAUNCH_DATE":"2022-05-14","REV_AT_EPOCH":"3689","CLASSIFICATION_TYPE":"U","ECCENTRICITY":"0.00023970","TIME_SYSTEM":"UTC","OBJECT_ID":"2022-052AG","EPOCH":"2023-01-12T20:22:38.441856","MEAN_ELEMENT_THEORY":"SGP4","GP_ID":"222891373","PERIAPSIS":"538.080","SEMIMAJOR_AXIS":"6917.874","MEAN_MOTION":"15.08842226","NORAD_CAT_ID":"52628","FILE":"3742227","OBJECT_TYPE":"PAYLOAD","CENTER_NAME":"EARTH","ARG_OF_PERICENTER":"31.3173","COUNTRY_CODE":"US","OBJECT_NAME":"STARLINK-4001"},{"RCS_SIZE":"LARGE","EPHEMERIS_TYPE":"0","TLE_LINE1":"1 52629U 22052AH  23012.79707938  .00002809  00000-0  19458-3 0  9992","RA_OF_ASC_NODE":"40.1805","DECAY_DATE":null,"BSTAR":"0.00019458000000","TLE_LINE2":"2 52629  53.2153  40.1805 0002731  28.3929 331.7212 15.08833652 37470","MEAN_MOTION_DDOT":"0.0000000000000","PERIOD":"95.438","APOAPSIS":"541.654","MEAN_ANOMALY":"331.7212","REF_FRAME":"TEME","MEAN_MOTION_DOT":"0.00002809","SITE":"AFETR","ELEMENT_SET_NO":"999","GP_ID":"222841279","PERIAPSIS":"537.876","SEMIMAJOR_AXIS":"6917.900","MEAN_MOTION":"15.08833652","NORAD_CAT_ID":"52629","FILE":"3741163","OBJECT_TYPE":"PAYLOAD","CENTER_NAME":"EARTH","ARG_OF_PERICENTER":"28.3929","COUNTRY_CODE":"US","OBJECT_NAME":"STARLINK-4022","INCLINATION":"53.2153","LAUNCH_DATE":"2022-05-14","REV_AT_EPOCH":"3747","CLASSIFICATION_TYPE":"U","ECCENTRICITY":"0.00027310","TIME_SYSTEM":"UTC","OBJECT_ID":"2022-052AH","MEAN_ELEMENT_THEORY":"SGP4","EPOCH":"2023-01-12T19:07:47.658432"},{"GP_ID":"222890373","PERIAPSIS":"538.261","SEMIMAJOR_AXIS":"6917.873","MEAN_MOTION":"15.08842513","CENTER_NAME":"EARTH","NORAD_CAT_ID":"52630","FILE":"3742227","OBJECT_TYPE":"PAYLOAD","OBJECT_NAME":"STARLINK-3989","ARG_OF_PERICENTER":"64.6531","COUNTRY_CODE":"US","LAUNCH_DATE":"2022-05-14","REV_AT_EPOCH":"3709","INCLINATION":"53.2130","CLASSIFICATION_TYPE":"U","TIME_SYSTEM":"UTC","ECCENTRICITY":"0.00021340","OBJECT_ID":"2022-052AJ","EPOCH":"2023-01-12T19:23:41.428896","MEAN_ELEMENT_THEORY":"SGP4","RCS_SIZE":"LARGE","EPHEMERIS_TYPE":"0","TLE_LINE1":"1 52630U 22052AJ  23012.80811839  .00000681  00000-0  60861-4 0  9993","RA_OF_ASC_NODE":"40.1298","BSTAR":"0.00006086100000","DECAY_DATE":null,"TLE_LINE2":"2 52630  53.2130  40.1298 0002134  64.6531 295.4682 15.08842513 37093","APOAPSIS":"541.214","PERIOD":"95.437","MEAN_ANOMALY":"295.4682","MEAN_MOTION_DDOT":"0.0000000000000","MEAN_MOTION_DOT":"0.00000681","REF_FRAME":"TEME","ELEMENT_SET_NO":"999","SITE":"AFETR"},{"TIME_SYSTEM":"UTC","ECCENTRICITY":"0.00030250","OBJECT_ID":"2022-052AK","MEAN_ELEMENT_THEORY":"SGP4","EPOCH":"2023-01-12T22:13:14.583936","INCLINATION":"53.2159","LAUNCH_DATE":"2022-05-14","REV_AT_EPOCH":"3749","CLASSIFICATION_TYPE":"U","CENTER_NAME":"EARTH","NORAD_CAT_ID":"52631","FILE":"3741809","OBJECT_TYPE":"PAYLOAD","OBJECT_NAME":"STARLINK-3794","ARG_OF_PERICENTER":"27.5100","COUNTRY_CODE":"US","GP_ID":"222857194","PERIAPSIS":"537.708","SEMIMAJOR_AXIS":"6917.936","MEAN_MOTION":"15.08821773","MEAN_MOTION_DOT":"-0.00013221","REF_FRAME":"TEME","ELEMENT_SET_NO":"999","SITE":"AFETR","TLE_LINE2":"2 52631  53.2159  39.6055 0003025  27.5100 332.6051 15.08821773 37492","APOAPSIS":"541.894","PERIOD":"95.439","MEAN_ANOMALY":"332.6051","MEAN_MOTION_DDOT":"0.0000000000000","RA_OF_ASC_NODE":"39.6055","BSTAR":"-0.00081442000000","DECAY_DATE":null,"RCS_SIZE":"LARGE","EPHEMERIS_TYPE":"0","TLE_LINE1":"1 52631U 22052AK  23012.92586324 -.00013221  00000-0 -81442-3 0  9998"},{"TLE_LINE2":"2 52632  53.2174  42.2232 0002898  19.4158 340.6944 15.08828898 37032","MEAN_MOTION_DDOT":"0.0000000000000","MEAN_ANOMALY":"340.6944","APOAPSIS":"541.784","PERIOD":"95.438","REF_FRAME":"TEME","MEAN_MOTION_DOT":"-0.00001452","SITE":"AFETR","ELEMENT_SET_NO":"999","EPHEMERIS_TYPE":"0","RCS_SIZE":"LARGE","TLE_LINE1":"1 52632U 22052AL  23012.34075194 -.00001452  00000-0 -73152-4 0  9996","RA_OF_ASC_NODE":"42.2232","DECAY_DATE":null,"BSTAR":"-0.00007315200000","CLASSIFICATION_TYPE":"U","LAUNCH_DATE":"2022-05-14","INCLINATION":"53.2174","REV_AT_EPOCH":"3703","TIME_SYSTEM":"UTC","ECCENTRICITY":"0.00028980","MEAN_ELEMENT_THEORY":"SGP4","EPOCH":"2023-01-12T08:10:40.967616","OBJECT_ID":"2022-052AL","GP_ID":"222890874","MEAN_MOTION":"15.08828898","SEMIMAJOR_AXIS":"6917.914","PERIAPSIS":"537.775","OBJECT_TYPE":"PAYLOAD","NORAD_CAT_ID":"52632","FILE":"3742227","CENTER_NAME":"EARTH","COUNTRY_CODE":"US","ARG_OF_PERICENTER":"19.4158","OBJECT_NAME":"STARLINK-3995"},{"REF_FRAME":"TEME","MEAN_MOTION_DOT":"0.00001283","SITE":"AFETR","ELEMENT_SET_NO":"999","TLE_LINE2":"2 52633  53.2161  41.7299 0002286  29.5441 330.5680 15.08828150 37052","MEAN_MOTION_DDOT":"0.0000000000000","MEAN_ANOMALY":"330.5680","APOAPSIS":"541.363","PERIOD":"95.438","RA_OF_ASC_NODE":"41.7299","DECAY_DATE":null,"BSTAR":"0.00009872400000","RCS_SIZE":"LARGE","EPHEMERIS_TYPE":"0","TLE_LINE1":"1 52633U 22052AM  23012.45115130  .00001283  00000-0  98724-4 0  9996","TIME_SYSTEM":"UTC","ECCENTRICITY":"0.00022860","OBJECT_ID":"2022-052AM","EPOCH":"2023-01-12T10:49:39.472320","MEAN_ELEMENT_THEORY":"SGP4","INCLINATION":"53.2161","LAUNCH_DATE":"2022-05-14","REV_AT_EPOCH":"3705","CLASSIFICATION_TYPE":"U","FILE":"3742227","NORAD_CAT_ID":"52633","OBJECT_TYPE":"PAYLOAD","CENTER_NAME":"EARTH","ARG_OF_PERICENTER":"29.5441","COUNTRY_CODE":"US","OBJECT_NAME":"STARLINK-3994","GP_ID":"222891122","PERIAPSIS":"538.200","MEAN_MOTION":"15.08828150","SEMIMAJOR_AXIS":"6917.917"},{"LAUNCH_DATE":"2022-05-14","REV_AT_EPOCH":"3747","INCLINATION":"53.2184","CLASSIFICATION_TYPE":"U","ECCENTRICITY":"0.00028820","TIME_SYSTEM":"UTC","OBJECT_ID":"2022-052AN","EPOCH":"2023-01-12T19:03:51.100416","MEAN_ELEMENT_THEORY":"SGP4","GP_ID":"222841708","PERIAPSIS":"537.756","MEAN_MOTION":"15.08838469","SEMIMAJOR_AXIS":"6917.885","CENTER_NAME":"EARTH","FILE":"3741166","NORAD_CAT_ID":"52634","OBJECT_TYPE":"PAYLOAD","OBJECT_NAME":"STARLINK-3974","ARG_OF_PERICENTER":"23.7002","COUNTRY_CODE":"US","TLE_LINE2":"2 52634  53.2184  40.1883 0002882  23.7002 336.4122 15.08838469 37477","APOAPSIS":"541.744","PERIOD":"95.438","MEAN_ANOMALY":"336.4122","MEAN_MOTION_DDOT":"0.0000000000000","MEAN_MOTION_DOT":"-0.00000639","REF_FRAME":"TEME","ELEMENT_SET_NO":"999","SITE":"AFETR","RCS_SIZE":"LARGE","EPHEMERIS_TYPE":"0","TLE_LINE1":"1 52634U 22052AN  23012.79434144 -.00000639  00000-0 -22002-4 0  9995","RA_OF_ASC_NODE":"40.1883","BSTAR":"-0.00002200200000","DECAY_DATE":null},{"MEAN_MOTION_DDOT":"0.0000000000000","MEAN_ANOMALY":"328.4763","APOAPSIS":"541.591","PERIOD":"95.438","TLE_LINE2":"2 52635  53.2165  30.3097 0002631  31.6387 328.4763 15.08831715 37234","SITE":"AFETR","ELEMENT_SET_NO":"999","REF_FRAME":"TEME","MEAN_MOTION_DOT":"0.00004109","TLE_LINE1":"1 52635U 22052AP  23012.76487532  .00004109  00000-0  27618-3 0  9993","EPHEMERIS_TYPE":"0","RCS_SIZE":"LARGE","DECAY_DATE":null,"BSTAR":"0.00027618000000","RA_OF_ASC_NODE":"30.3097","CLASSIFICATION_TYPE":"U","LAUNCH_DATE":"2022-05-14","INCLINATION":"53.2165","REV_AT_EPOCH":"3723","MEAN_ELEMENT_THEORY":"SGP4","EPOCH":"2023-01-12T18:21:25.227648","OBJECT_ID":"2022-052AP","ECCENTRICITY":"0.00026310","TIME_SYSTEM":"UTC","SEMIMAJOR_AXIS":"6917.906","MEAN_MOTION":"15.08831715","PERIAPSIS":"537.951","GP_ID":"222890124","COUNTRY_CODE":"US","ARG_OF_PERICENTER":"31.6387","OBJECT_NAME":"STARLINK-3978","OBJECT_TYPE":"PAYLOAD","FILE":"3742227","NORAD_CAT_ID":"52635","CENTER_NAME":"EARTH"}];
